[{"OBJECT_NAME":"STARLINK-1470","OBJECT_ID":"2020-038AU","EPOCH":"2026-03-09T14:36:51.476832","MEAN_MOTION":15.2807486,"ECCENTRICITY":0.0002444,"INCLINATION":53.048,"RA_OF_ASC_NODE":174.6971,"ARG_OF_PERICENTER":12.8687,"MEAN_ANOMALY":347.2373,"EPHEMERIS_TYPE":0,"CLASSIFICATION_TYPE":"U","NORAD_CAT_ID":45772,"ELEMENT_SET_NO":999,"REV_AT_EPOCH":31706,"BSTAR":0.0019687,"MEAN_MOTION_DOT":0.00054678,"MEAN_MOTION_DDOT":0},{"OBJECT_NAME":"STARLINK-35232","OBJECT_ID":"2025-198AC","EPOCH":"2026-03-09T18:07:58.649952","MEAN_MOTION":15.30185254,"ECCENTRICITY":9.932e-5,"INCLINATION":53.1592,"RA_OF_ASC_NODE":270.4379,"ARG_OF_PERICENTER":36.0467,"MEAN_ANOMALY":324.0601,"EPHEMERIS_TYPE":0,"CLASSIFICATION_TYPE":"U","NORAD_CAT_ID":65518,"ELEMENT_SET_NO":999,"REV_AT_EPOCH":2863,"BSTAR":-0.00092588612,"MEAN_MOTION_DOT":-0.00027667,"MEAN_MOTION_DDOT":0}]
